SYNCOM 2 (A 26)         
1 00634U 63031A   26116.93533032 -.00000059  00000+0  00000+0 0  9993
2 00634  30.0939 301.1711 0006265 197.8489 122.2818  1.00255121229844
SYNCOM 3                
1 00858U 64047A   26116.86182329  .00000041  00000+0  00000+0 0  9990
2 00858   6.8434  65.0146 0002832 179.4431 337.4419  1.00394470 52954
DELTA 1 R/B             
1 00862U 64047B   26116.21744979 -.00000178  00000+0  00000+0 0  9991
2 00862  16.7936 348.1715 7111465 358.3803   0.3522  2.05109028257096
INTELSAT 1-F1           
1 01317U 65028A   26116.52927669 -.00000073  00000+0  00000+0 0  9994
2 01317   7.0326  64.2502 0004928 155.3514  78.2721  1.00178409126655
DELTA 1 R/B(2)          
1 01318U 65028B   26116.39889297 -.00000302  00000+0  00000+0 0  9999
2 01318  17.8558 280.1169 6940305 124.6053 294.0049  2.11826033106229
INTELSAT 2-F1           
1 02514U 66096A   26116.32933196 -.00000417  00000+0  00000+0 0  9992
2 02514  17.7933  64.7325 6398295 163.7524 234.5045  2.00358096 93773
ATS 1                   
1 02608U 66110A   26116.80782973 -.00000248  00000+0  00000+0 0  9993
2 02608   4.8458  70.3947 0006236 193.0266  26.7402  1.00312859134289
INTELSAT 2-F2           
1 02639U 67001A   26116.91364752 -.00000277  00000+0  00000+0 0  9992
2 02639   3.1225  77.7471 0006376 214.2106 210.5981  1.00201620118734
INTELSAT 2-F3           
1 02717U 67026A   26116.92508757  .00000104  00000+0  00000+0 0  9990
2 02717   3.9555  68.2823 0017998 228.5185 267.8226  1.00329158123389
TITAN 3C TRANSTAGE R/B  
1 02770U 67040F   26116.27977536 -.00001076  00000+0  00000+0 0  9998
2 02770  16.0880 209.1408 7922098 352.4737   0.2597  0.50944923 23041
INTELSAT 2-F4           
1 02969U 67094A   26116.52402051 -.00000176  00000+0  00000+0 0  9990
2 02969   3.9463  74.7241 0009694 147.2897  86.2768  1.00378305114790
ATS 3                   
1 03029U 67111A   26116.90099414 -.00000096  00000+0  00000+0 0  9996
2 03029   3.0470  78.9517 0015278  30.6472 324.3898  1.00271963214117
OPS 2222                
1 03334U 68063A   26116.86667664 -.00000037  00000+0  00000+0 0  9990
2 03334   6.0482 282.6769 0895559 230.4984  85.1508  0.99249966 25611
OV2-5                   
1 03428U 68081A   26116.86953666 -.00000303  00000+0  00000+0 0  9990
2 03428   1.8995  49.2574 0080588 284.2889 291.2292  1.01561025120531
LES-6                   
1 03431U 68081D   26116.75045028  .00000108  00000+0  00000+0 0  9998
2 03431   1.4509  37.7976 0009671 304.0527 357.9943  1.00303937120262
TITAN 3C TRANSTAGE R/B  
1 03432U 68081E   26116.94950253 -.00000088  00000+0  00000+0 0  9993
2 03432   1.8589  49.2121 0094378 277.6675 275.5051  1.01520002121465
OPS 0757 (TACSAT)       
1 03691U 69013A   26116.84474990 -.00000201  00000+0  00000+0 0  9991
2 03691   2.7198  74.7914 0019619 179.9119 235.5074  1.00408044113599
