[{"OBJECT_NAME":"SYNCOM 2 (A 26)","OBJECT_ID":"1963-031A","EPOCH":"2026-04-26T22:26:52.539648","MEAN_MOTION":1.00255121,"ECCENTRICITY":0.00062651,"INCLINATION":30.0939,"RA_OF_ASC_NODE":301.1711,"ARG_OF_PERICENTER":197.8489,"MEAN_ANOMALY":122.2818,"EPHEMERIS_TYPE":0,"CLASSIFICATION_TYPE":"U","NORAD_CAT_ID":634,"ELEMENT_SET_NO":999,"REV_AT_EPOCH":22984,"BSTAR":0,"MEAN_MOTION_DOT":-5.9e-7,"MEAN_MOTION_DDOT":0},{"OBJECT_NAME":"SYNCOM 3","OBJECT_ID":"1964-047A","EPOCH":"2026-04-26T20:41:01.532256","MEAN_MOTION":1.0039447,"ECCENTRICITY":0.00028326,"INCLINATION":6.8434,"RA_OF_ASC_NODE":65.0146,"ARG_OF_PERICENTER":179.4431,"MEAN_ANOMALY":337.4419,"EPHEMERIS_TYPE":0,"CLASSIFICATION_TYPE":"U","NORAD_CAT_ID":858,"ELEMENT_SET_NO":999,"REV_AT_EPOCH":5295,"BSTAR":0,"MEAN_MOTION_DOT":4.1e-7,"MEAN_MOTION_DDOT":0},{"OBJECT_NAME":"DELTA 1 R/B","OBJECT_ID":"1964-047B","EPOCH":"2026-04-26T05:13:07.661856","MEAN_MOTION":2.05109028,"ECCENTRICITY":0.7111465,"INCLINATION":16.7936,"RA_OF_ASC_NODE":348.1715,"ARG_OF_PERICENTER":358.3803,"MEAN_ANOMALY":0.3522,"EPHEMERIS_TYPE":0,"CLASSIFICATION_TYPE":"U","NORAD_CAT_ID":862,"ELEMENT_SET_NO":999,"REV_AT_EPOCH":25709,"BSTAR":0,"MEAN_MOTION_DOT":-1.78e-6,"MEAN_MOTION_DDOT":0},{"OBJECT_NAME":"INTELSAT 1-F1","OBJECT_ID":"1965-028A","EPOCH":"2026-04-26T12:42:09.506016","MEAN_MOTION":1.00178409,"ECCENTRICITY":0.00049283,"INCLINATION":7.0326,"RA_OF_ASC_NODE":64.2502,"ARG_OF_PERICENTER":155.3514,"MEAN_ANOMALY":78.2721,"EPHEMERIS_TYPE":0,"CLASSIFICATION_TYPE":"U","NORAD_CAT_ID":1317,"ELEMENT_SET_NO":999,"REV_AT_EPOCH":12665,"BSTAR":0,"MEAN_MOTION_DOT":-7.3e-7,"MEAN_MOTION_DDOT":0},{"OBJECT_NAME":"DELTA 1 R/B(2)","OBJECT_ID":"1965-028B","EPOCH":"2026-04-26T09:34:24.352608","MEAN_MOTION":2.11826033,"ECCENTRICITY":0.69403052,"INCLINATION":17.8558,"RA_OF_ASC_NODE":280.1169,"ARG_OF_PERICENTER":124.6053,"MEAN_ANOMALY":294.0049,"EPHEMERIS_TYPE":0,"CLASSIFICATION_TYPE":"U","NORAD_CAT_ID":1318,"ELEMENT_SET_NO":999,"REV_AT_EPOCH":10622,"BSTAR":0,"MEAN_MOTION_DOT":-3.02e-6,"MEAN_MOTION_DDOT":0},{"OBJECT_NAME":"INTELSAT 2-F1","OBJECT_ID":"1966-096A","EPOCH":"2026-04-26T07:54:14.281344","MEAN_MOTION":2.00358096,"ECCENTRICITY":0.63982952,"INCLINATION":17.7933,"RA_OF_ASC_NODE":64.7325,"ARG_OF_PERICENTER":163.7524,"MEAN_ANOMALY":234.5045,"EPHEMERIS_TYPE":0,"CLASSIFICATION_TYPE":"U","NORAD_CAT_ID":2514,"ELEMENT_SET_NO":999,"REV_AT_EPOCH":9377,"BSTAR":0,"MEAN_MOTION_DOT":-4.17e-6,"MEAN_MOTION_DDOT":0},{"OBJECT_NAME":"ATS 1","OBJECT_ID":"1966-110A","EPOCH":"2026-04-26T19:23:16.488672","MEAN_MOTION":1.00312859,"ECCENTRICITY":0.00062366,"INCLINATION":4.8458,"RA_OF_ASC_NODE":70.3947,"ARG_OF_PERICENTER":193.0266,"MEAN_ANOMALY":26.7402,"EPHEMERIS_TYPE":0,"CLASSIFICATION_TYPE":"U","NORAD_CAT_ID":2608,"ELEMENT_SET_NO":999,"REV_AT_EPOCH":13428,"BSTAR":0,"MEAN_MOTION_DOT":-2.48e-6,"MEAN_MOTION_DDOT":0},{"OBJECT_NAME":"INTELSAT 2-F2","OBJECT_ID":"1967-001A","EPOCH":"2026-04-26T21:55:39.145728","MEAN_MOTION":1.0020162,"ECCENTRICITY":0.00063765,"INCLINATION":3.1225,"RA_OF_ASC_NODE":77.7471,"ARG_OF_PERICENTER":214.2106,"MEAN_ANOMALY":210.5981,"EPHEMERIS_TYPE":0,"CLASSIFICATION_TYPE":"U","NORAD_CAT_ID":2639,"ELEMENT_SET_NO":999,"REV_AT_EPOCH":11873,"BSTAR":0,"MEAN_MOTION_DOT":-2.77e-6,"MEAN_MOTION_DDOT":0},{"OBJECT_NAME":"INTELSAT 2-F3","OBJECT_ID":"1967-026A","EPOCH":"2026-04-26T22:12:07.566048","MEAN_MOTION":1.00329158,"ECCENTRICITY":0.00179986,"INCLINATION":3.9555,"RA_OF_ASC_NODE":68.2823,"ARG_OF_PERICENTER":228.5185,"MEAN_ANOMALY":267.8226,"EPHEMERIS_TYPE":0,"CLASSIFICATION_TYPE":"U","NORAD_CAT_ID":2717,"ELEMENT_SET_NO":999,"REV_AT_EPOCH":12338,"BSTAR":0,"MEAN_MOTION_DOT":1.04e-6,"MEAN_MOTION_DDOT":0},{"OBJECT_NAME":"TITAN 3C TRANSTAGE R/B","OBJECT_ID":"1967-040F","EPOCH":"2026-04-26T06:42:52.591104","MEAN_MOTION":0.50944923,"ECCENTRICITY":0.79220984,"INCLINATION":16.088,"RA_OF_ASC_NODE":209.1408,"ARG_OF_PERICENTER":352.4737,"MEAN_ANOMALY":0.2597,"EPHEMERIS_TYPE":0,"CLASSIFICATION_TYPE":"U","NORAD_CAT_ID":2770,"ELEMENT_SET_NO":999,"REV_AT_EPOCH":2304,"BSTAR":0,"MEAN_MOTION_DOT":-1.076e-5,"MEAN_MOTION_DDOT":0},{"OBJECT_NAME":"INTELSAT 2-F4","OBJECT_ID":"1967-094A","EPOCH":"2026-04-26T12:34:35.372064","MEAN_MOTION":1.00378305,"ECCENTRICITY":0.00096942,"INCLINATION":3.9463,"RA_OF_ASC_NODE":74.7241,"ARG_OF_PERICENTER":147.2897,"MEAN_ANOMALY":86.2768,"EPHEMERIS_TYPE":0,"CLASSIFICATION_TYPE":"U","NORAD_CAT_ID":2969,"ELEMENT_SET_NO":999,"REV_AT_EPOCH":11479,"BSTAR":0,"MEAN_MOTION_DOT":-1.76e-6,"MEAN_MOTION_DDOT":0},{"OBJECT_NAME":"ATS 3","OBJECT_ID":"1967-111A","EPOCH":"2026-04-26T21:37:25.893696","MEAN_MOTION":1.00271963,"ECCENTRICITY":0.00152783,"INCLINATION":3.047,"RA_OF_ASC_NODE":78.9517,"ARG_OF_PERICENTER":30.6472,"MEAN_ANOMALY":324.3898,"EPHEMERIS_TYPE":0,"CLASSIFICATION_TYPE":"U","NORAD_CAT_ID":3029,"ELEMENT_SET_NO":999,"REV_AT_EPOCH":21411,"BSTAR":0,"MEAN_MOTION_DOT":-9.6e-7,"MEAN_MOTION_DDOT":0},{"OBJECT_NAME":"OPS 2222","OBJECT_ID":"1968-063A","EPOCH":"2026-04-26T20:48:00.861696","MEAN_MOTION":0.99249966,"ECCENTRICITY":0.08955594,"INCLINATION":6.0482,"RA_OF_ASC_NODE":282.6769,"ARG_OF_PERICENTER":230.4984,"MEAN_ANOMALY":85.1508,"EPHEMERIS_TYPE":0,"CLASSIFICATION_TYPE":"U","NORAD_CAT_ID":3334,"ELEMENT_SET_NO":999,"REV_AT_EPOCH":2561,"BSTAR":0,"MEAN_MOTION_DOT":-3.7e-7,"MEAN_MOTION_DDOT":0},{"OBJECT_NAME":"OV2-5","OBJECT_ID":"1968-081A","EPOCH":"2026-04-26T20:52:07.967424","MEAN_MOTION":1.01561025,"ECCENTRICITY":0.00805889,"INCLINATION":1.8995,"RA_OF_ASC_NODE":49.2574,"ARG_OF_PERICENTER":284.2889,"MEAN_ANOMALY":291.2292,"EPHEMERIS_TYPE":0,"CLASSIFICATION_TYPE":"U","NORAD_CAT_ID":3428,"ELEMENT_SET_NO":999,"REV_AT_EPOCH":12053,"BSTAR":0,"MEAN_MOTION_DOT":-3.03e-6,"MEAN_MOTION_DDOT":0},{"OBJECT_NAME":"LES-6","OBJECT_ID":"1968-081D","EPOCH":"2026-04-26T18:00:38.904192","MEAN_MOTION":1.00303937,"ECCENTRICITY":0.00096713,"INCLINATION":1.4509,"RA_OF_ASC_NODE":37.7976,"ARG_OF_PERICENTER":304.0527,"MEAN_ANOMALY":357.9943,"EPHEMERIS_TYPE":0,"CLASSIFICATION_TYPE":"U","NORAD_CAT_ID":3431,"ELEMENT_SET_NO":999,"REV_AT_EPOCH":12026,"BSTAR":0,"MEAN_MOTION_DOT":1.08e-6,"MEAN_MOTION_DDOT":0},{"OBJECT_NAME":"TITAN 3C TRANSTAGE R/B","OBJECT_ID":"1968-081E","EPOCH":"2026-04-26T22:47:17.018592","MEAN_MOTION":1.01520002,"ECCENTRICITY":0.00943783,"INCLINATION":1.8589,"RA_OF_ASC_NODE":49.2121,"ARG_OF_PERICENTER":277.6675,"MEAN_ANOMALY":275.5051,"EPHEMERIS_TYPE":0,"CLASSIFICATION_TYPE":"U","NORAD_CAT_ID":3432,"ELEMENT_SET_NO":999,"REV_AT_EPOCH":12146,"BSTAR":0,"MEAN_MOTION_DOT":-8.8e-7,"MEAN_MOTION_DDOT":0},{"OBJECT_NAME":"OPS 0757 (TACSAT)","OBJECT_ID":"1969-013A","EPOCH":"2026-04-26T20:16:26.391360","MEAN_MOTION":1.00408044,"ECCENTRICITY":0.00196198,"INCLINATION":2.7198,"RA_OF_ASC_NODE":74.7914,"ARG_OF_PERICENTER":179.9119,"MEAN_ANOMALY":235.5074,"EPHEMERIS_TYPE":0,"CLASSIFICATION_TYPE":"U","NORAD_CAT_ID":3691,"ELEMENT_SET_NO":999,"REV_AT_EPOCH":11359,"BSTAR":0,"MEAN_MOTION_DOT":-2.01e-6,"MEAN_MOTION_DDOT":0}]
